$$SOE
2460728.500000000, A.D. 2025-Feb-22 00:00:00.0000, 3.836579942061407E+08, -2.647815473240029E+08, -6.201990338738754E+06,
2460735.500000000, A.D. 2025-Mar-01 00:00:00.0000, 3.895648683916336E+08, -2.564818983505892E+08, -7.748955569757938E+06,
2460742.500000000, A.D. 2025-Mar-08 00:00:00.0000, 3.952854476539825E+08, -2.480596445024124E+08, -9.292215711447552E+06,
2460749.500000000, A.D. 2025-Mar-15 00:00:00.0000, 4.008173472286332E+08, -2.395190291051213E+08, -1.083104115812942E+07,
2460756.500000000, A.D. 2025-Mar-22 00:00:00.0000, 4.061582852651028E+08, -2.308643374411881E+08, -1.236470698843612E+07,
2460763.500000000, A.D. 2025-Mar-29 00:00:00.0000, 4.113060825018906E+08, -2.220998958391444E+08, -1.389249340419322E+07,
2460770.500000000, A.D. 2025-Apr-05 00:00:00.0000, 4.162586635539418E+08, -2.132300698859015E+08, -1.541368624304219E+07,
2460777.500000000, A.D. 2025-Apr-12 00:00:00.0000, 4.210140578885998E+08, -2.042592616605467E+08, -1.692757737970856E+07,
2460784.500000000, A.D. 2025-Apr-19 00:00:00.0000, 4.255704003045499E+08, -1.951919068734590E+08, -1.843346507086308E+07,
2460791.500000000, A.D. 2025-Apr-26 00:00:00.0000, 4.299259311869754E+08, -1.860324721159855E+08, -1.993065428519071E+07,
2460798.500000000, A.D. 2025-May-03 00:00:00.0000, 4.340789966542515E+08, -1.767854522035153E+08, -2.141845702761663E+07,
2460805.500000000, A.D. 2025-May-10 00:00:00.0000, 4.380280486265615E+08, -1.674553676052792E+08, -2.289619265967833E+07,
2460812.500000000, A.D. 2025-May-17 00:00:00.0000, 4.417716448549023E+08, -1.580467620039814E+08, -2.436318822283458E+07,
2460819.500000000, A.D. 2025-May-24 00:00:00.0000, 4.453084490856880E+08, -1.485642000416264E+08, -2.581877878517036E+07,
2460826.500000000, A.D. 2025-May-31 00:00:00.0000, 4.486372317798201E+08, -1.390122649416419E+08, -2.726230782439306E+07,
2460833.500000000, A.D. 2025-Jun-07 00:00:00.0000, 4.517568709879133E+08, -1.293955548031875E+08, -2.869312751180360E+07,
2460840.500000000, A.D. 2025-Jun-14 00:00:00.0000, 4.546663510213400E+08, -1.197186782368534E+08, -3.011059873488779E+07,
2460847.500000000, A.D. 2025-Jun-21 00:00:00.0000, 4.573647601379956E+08, -1.099862526164768E+08, -3.151409123762090E+07,
2460854.500000000, A.D. 2025-Jun-28 00:00:00.0000, 4.598512903709310E+08, -1.002029031841768E+08, -3.290298402120560E+07,
2460861.500000000, A.D. 2025-Jul-05 00:00:00.0000, 4.621252379837342E+08, -9.037326085315889E+07, -3.427666568978170E+07,
2460868.500000000, A.D. 2025-Jul-12 00:00:00.0000, 4.641860033625506E+08, -8.050195951466563E+07, -3.563453469752810E+07,
2460875.500000000, A.D. 2025-Jul-19 00:00:00.0000, 4.660330905351248E+08, -7.059363342449436E+07, -3.697599956134942E+07,
2460882.500000000, A.D. 2025-Jul-26 00:00:00.0000, 4.676661065284341E+08, -6.065291472528420E+07, -3.830047906285792E+07,
2460889.500000000, A.D. 2025-Aug-02 00:00:00.0000, 4.690847606333422E+08, -5.068443108258733E+07, -3.960740244383094E+07,
2460896.500000000, A.D. 2025-Aug-09 00:00:00.0000, 4.702888636036956E+08, -4.069280344977583E+07, -4.089620959857515E+07,
2460903.500000000, A.D. 2025-Aug-16 00:00:00.0000, 4.712783268706892E+08, -3.068264402640704E+07, -4.216635127558870E+07,
2460910.500000000, A.D. 2025-Aug-23 00:00:00.0000, 4.720531620676499E+08, -2.065855439548893E+07, -4.341728931411251E+07,
2460917.500000000, A.D. 2025-Aug-30 00:00:00.0000, 4.726134811950336E+08, -1.062512312675552E+07, -4.464849688725492E+07,
2460924.500000000, A.D. 2025-Sep-06 00:00:00.0000, 4.729594960091552E+08, -5.869218454589490E+05, -4.585945853962708E+07,
2460931.500000000, A.D. 2025-Sep-13 00:00:00.0000, 4.730915149675078E+08, 9.451497749678571E+06, -4.704967006916943E+07,
2460938.500000000, A.D. 2025-Sep-20 00:00:00.0000, 4.730099410053160E+08, 1.948560427301430E+07, -4.821863868773010E+07,
2460945.500000000, A.D. 2025-Sep-27 00:00:00.0000, 4.727152712013175E+08, 2.951088755431003E+07, -4.936588330282895E+07,
2460952.500000000, A.D. 2025-Oct-04 00:00:00.0000, 4.722080963168260E+08, 3.952286059676166E+07, -5.049093469125357E+07,
2460959.500000000, A.D. 2025-Oct-11 00:00:00.0000, 4.714890998360846E+08, 4.951706164834882E+07, -5.159333560717179E+07,
2460966.500000000, A.D. 2025-Oct-18 00:00:00.0000, 4.705590567934268E+08, 5.948905611276379E+07, -5.267264087326055E+07,
2460973.500000000, A.D. 2025-Oct-25 00:00:00.0000, 4.694188325288293E+08, 6.943443831172423E+07, -5.372841746697333E+07,
2460980.500000000, A.D. 2025-Nov-01 00:00:00.0000, 4.680693814135838E+08, 7.934883311497232E+07, -5.476024460468040E+07,
2460987.500000000, A.D. 2025-Nov-08 00:00:00.0000, 4.665117455831209E+08, 8.922789740723865E+07, -5.576771382992651E+07,
2460994.500000000, A.D. 2025-Nov-15 00:00:00.0000, 4.647470538273331E+08, 9.906732133396004E+07, -5.675042912474401E+07,
2461001.500000000, A.D. 2025-Nov-22 00:00:00.0000, 4.627765210428385E+08, 1.088628295456352E+08, -5.770800706349259E+07,
2461008.500000000, A.D. 2025-Nov-29 00:00:00.0000, 4.606014480941966E+08, 1.186101835759679E+08, -5.864007690262361E+07,
2461015.500000000, A.D. 2025-Dec-06 00:00:00.0000, 4.582232198078121E+08, 1.283051852196648E+08, -5.954628040879562E+07,
2461022.500000000, A.D. 2025-Dec-13 00:00:00.0000, 4.556433015359266E+08, 1.379436775406856E+08, -6.042627174125443E+07,
2461029.500000000, A.D. 2025-Dec-20 00:00:00.0000, 4.528632377855831E+08, 1.475215445334251E+08, -6.127971762571673E+07,
2461036.500000000, A.D. 2025-Dec-27 00:00:00.0000, 4.498846518386323E+08, 1.570347120285952E+08, -6.210629750949574E+07,
2461043.500000000, A.D. 2026-Jan-03 00:00:00.0000, 4.467092449044700E+08, 1.664791492297101E+08, -6.290570361440658E+07,
2461050.500000000, A.D. 2026-Jan-10 00:00:00.0000, 4.433387949167472E+08, 1.758508702027545E+08, -6.367764095315696E+07,
2461057.500000000, A.D. 2026-Jan-17 00:00:00.0000, 4.397751552080187E+08, 1.851459352289687E+08, -6.442182733817407E+07,
2461064.500000000, A.D. 2026-Jan-24 00:00:00.0000, 4.360202531415804E+08, 1.943604520450512E+08, -6.513799338827367E+07,
2461071.500000000, A.D. 2026-Jan-31 00:00:00.0000, 4.320760887252636E+08, 2.034905769651641E+08, -6.582588253604837E+07,
2461078.500000000, A.D. 2026-Feb-07 00:00:00.0000, 4.279447332701914E+08, 2.125325158293160E+08, -6.648525104647531E+07,
2461085.500000000, A.D. 2026-Feb-14 00:00:00.0000, 4.236283283493574E+08, 2.214825247645752E+08, -6.711586807148536E+07,
2461092.500000000, A.D. 2026-Feb-21 00:00:00.0000, 4.191290854451027E+08, 2.303369113369716E+08, -6.771751572912221E+07,
2461099.500000000, A.D. 2026-Feb-28 00:00:00.0000, 4.144492852005464E+08, 2.390920372479225E+08, -6.828998901335680E+07,
2461106.500000000, A.D. 2026-Mar-07 00:00:00.0000, 4.095912742168396E+08, 2.477443206270850E+08, -6.883309550501615E+07,
2461113.500000000, A.D. 2026-Mar-14 00:00:00.0000, 4.045574621746957E+08, 2.562902355899154E+08, -6.934665532953309E+07,
2461120.500000000, A.D. 2026-Mar-21 00:00:00.0000, 3.993503210633727E+08, 2.647263119565881E+08, -6.983050128807974E+07,
2461127.500000000, A.D. 2026-Mar-28 00:00:00.0000, 3.939723845059665E+08, 2.730491361608579E+08, -7.028447889307413E+07,
2461134.500000000, A.D. 2026-Apr-04 00:00:00.0000, 3.884262465765666E+08, 2.812553523848935E+08, -7.070844633125298E+07,
2461141.500000000, A.D. 2026-Apr-11 00:00:00.0000, 3.827145603838489E+08, 2.893416635624089E+08, -7.110227440889570E+07,
2461148.500000000, A.D. 2026-Apr-18 00:00:00.0000, 3.768400365820897E+08, 2.973048322454796E+08, -7.146584649465504E+07,
2461155.500000000, A.D. 2026-Apr-25 00:00:00.0000, 3.708054418575790E+08, 3.051416813511826E+08, -7.179905846333900E+07,
2461162.500000000, A.D. 2026-May-02 00:00:00.0000, 3.646135974230857E+08, 3.128490947592641E+08, -7.210181864611869E+07,
2461169.500000000, A.D. 2026-May-09 00:00:00.0000, 3.582673776465220E+08, 3.204240176952173E+08, -7.237404780412865E+07,
2461176.500000000, A.D. 2026-May-16 00:00:00.0000, 3.517697091931344E+08, 3.278634570376654E+08, -7.261567914896205E+07,
2461183.500000000, A.D. 2026-May-23 00:00:00.0000, 3.451235707339575E+08, 3.351644825721899E+08, -7.282665833130769E+07,
2461190.500000000, A.D. 2026-May-30 00:00:00.0000, 3.383319911410423E+08, 3.423242295105609E+08, -7.300694318053752E+07,
2461197.500000000, A.D. 2026-Jun-06 00:00:00.0000, 3.313980458514207E+08, 3.493398990038713E+08, -7.315650343361762E+07,
2461204.500000000, A.D. 2026-Jun-13 00:00:00.0000, 3.243248550678042E+08, 3.562087568506789E+08, -7.327532077416155E+07,
2461211.500000000, A.D. 2026-Jun-20 00:00:00.0000, 3.171155832957073E+08, 3.629281333259900E+08, -7.336338889689410E+07,
2461218.500000000, A.D. 2026-Jun-27 00:00:00.0000, 3.097734385180152E+08, 3.694954237913653E+08, -7.342071346959397E+07,
2461225.500000000, A.D. 2026-Jul-04 00:00:00.0000, 3.023016710067394E+08, 3.759080893121814E+08, -7.344731205612423E+07,
2461232.500000000, A.D. 2026-Jul-11 00:00:00.0000, 2.947035720260571E+08, 3.821636571510916E+08, -7.344321403500783E+07,
2461239.500000000, A.D. 2026-Jul-18 00:00:00.0000, 2.869824725195115E+08, 3.882597211642696E+08, -7.340846052031967E+07,
2461246.500000000, A.D. 2026-Jul-25 00:00:00.0000, 2.791417418059023E+08, 3.941939421039573E+08, -7.334310428723125E+07,
2461253.500000000, A.D. 2026-Aug-01 00:00:00.0000, 2.711847863319716E+08, 3.999640477800499E+08, -7.324720971082695E+07,
2461260.500000000, A.D. 2026-Aug-08 00:00:00.0000, 2.631150486967975E+08, 4.055678330458953E+08, -7.312085274110806E+07,
2461267.500000000, A.D. 2026-Aug-15 00:00:00.0000, 2.549360073633248E+08, 4.110031600599105E+08, -7.296412091581243E+07,
2461274.500000000, A.D. 2026-Aug-22 00:00:00.0000, 2.466511762964913E+08, 4.162679600444834E+08, -7.277711324163762E+07,
2461281.500000000, A.D. 2026-Aug-29 00:00:00.0000, 2.382641022375528E+08, 4.213602351686468E+08, -7.255993984562482E+07,
2461288.500000000, A.D. 2026-Sep-05 00:00:00.0000, 2.297783617468792E+08, 4.262780576884916E+08, -7.231272182676418E+07,
2461295.500000000, A.D. 2026-Sep-12 00:00:00.0000, 2.211975604714096E+08, 4.310195688433607E+08, -7.203559132973880E+07,
$$EOE